<?xml version="1.0" encoding="UTF-8"?>
<ndm xmlns:xsi="http://www.w3.org/2001/XMLSchema-instance" xsi:noNamespaceSchemaLocation="https://sanaregistry.org/r/ndmxml_unqualified/ndmxml-2.0.0-master-2.0.xsd">
<omm id="CCSDS_OMM_VERS" version="2.0">
<header><CREATION_DATE/><ORIGINATOR/></header><body><segment><metadata><OBJECT_NAME>FALCON 9 R/B</OBJECT_NAME><OBJECT_ID>2022-157B</OBJECT_ID><CENTER_NAME>EARTH</CENTER_NAME><REF_FRAME>TEME</REF_FRAME><TIME_SYSTEM>UTC</TIME_SYSTEM><MEAN_ELEMENT_THEORY>SGP4</MEAN_ELEMENT_THEORY></metadata><data><meanElements><EPOCH>2022-12-13T11:30:25.649856</EPOCH><MEAN_MOTION>1.25051460</MEAN_MOTION><ECCENTRICITY>.8185158</ECCENTRICITY><INCLINATION>22.4719</INCLINATION><RA_OF_ASC_NODE>294.2886</RA_OF_ASC_NODE><ARG_OF_PERICENTER>184.9727</ARG_OF_PERICENTER><MEAN_ANOMALY>151.8453</MEAN_ANOMALY></meanElements><tleParameters><EPHEMERIS_TYPE>0</EPHEMERIS_TYPE><CLASSIFICATION_TYPE>U</CLASSIFICATION_TYPE><NORAD_CAT_ID>54260</NORAD_CAT_ID><ELEMENT_SET_NO>999</ELEMENT_SET_NO><REV_AT_EPOCH>25</REV_AT_EPOCH><BSTAR>.1483E-2</BSTAR><MEAN_MOTION_DOT>.3124E-4</MEAN_MOTION_DOT><MEAN_MOTION_DDOT>0</MEAN_MOTION_DDOT></tleParameters></data></segment></body></omm>
<omm id="CCSDS_OMM_VERS" version="2.0">
<header><CREATION_DATE/><ORIGINATOR/></header><body><segment><metadata><OBJECT_NAME>EOS-6 (OCEANSAT-3)</OBJECT_NAME><OBJECT_ID>2022-158A</OBJECT_ID><CENTER_NAME>EARTH</CENTER_NAME><REF_FRAME>TEME</REF_FRAME><TIME_SYSTEM>UTC</TIME_SYSTEM><MEAN_ELEMENT_THEORY>SGP4</MEAN_ELEMENT_THEORY></metadata><data><meanElements><EPOCH>2022-12-14T00:36:51.921216</EPOCH><MEAN_MOTION>14.45829524</MEAN_MOTION><ECCENTRICITY>.0012019</ECCENTRICITY><INCLINATION>98.3547</INCLINATION><RA_OF_ASC_NODE>82.5524</RA_OF_ASC_NODE><ARG_OF_PERICENTER>175.2583</ARG_OF_PERICENTER><MEAN_ANOMALY>184.8729</MEAN_ANOMALY></meanElements><tleParameters><EPHEMERIS_TYPE>0</EPHEMERIS_TYPE><CLASSIFICATION_TYPE>U</CLASSIFICATION_TYPE><NORAD_CAT_ID>54361</NORAD_CAT_ID><ELEMENT_SET_NO>999</ELEMENT_SET_NO><REV_AT_EPOCH>256</REV_AT_EPOCH><BSTAR>.10203E-3</BSTAR><MEAN_MOTION_DOT>.319E-5</MEAN_MOTION_DOT><MEAN_MOTION_DDOT>0</MEAN_MOTION_DDOT></tleParameters></data></segment></body></omm>
<omm id="CCSDS_OMM_VERS" version="2.0">
<header><CREATION_DATE/><ORIGINATOR/></header><body><segment><metadata><OBJECT_NAME>2022-158B</OBJECT_NAME><OBJECT_ID>2022-158B</OBJECT_ID><CENTER_NAME>EARTH</CENTER_NAME><REF_FRAME>TEME</REF_FRAME><TIME_SYSTEM>UTC</TIME_SYSTEM><MEAN_ELEMENT_THEORY>SGP4</MEAN_ELEMENT_THEORY></metadata><data><meanElements><EPOCH>2022-12-14T04:54:19.467936</EPOCH><MEAN_MOTION>15.16818307</MEAN_MOTION><ECCENTRICITY>.0023912</ECCENTRICITY><INCLINATION>97.4624</INCLINATION><RA_OF_ASC_NODE>83.2796</RA_OF_ASC_NODE><ARG_OF_PERICENTER>183.9688</ARG_OF_PERICENTER><MEAN_ANOMALY>263.4928</MEAN_ANOMALY></meanElements><tleParameters><EPHEMERIS_TYPE>0</EPHEMERIS_TYPE><CLASSIFICATION_TYPE>U</CLASSIFICATION_TYPE><NORAD_CAT_ID>54362</NORAD_CAT_ID><ELEMENT_SET_NO>999</ELEMENT_SET_NO><REV_AT_EPOCH>270</REV_AT_EPOCH><BSTAR>.24175E-3</BSTAR><MEAN_MOTION_DOT>.4718E-4</MEAN_MOTION_DOT><MEAN_MOTION_DDOT>0</MEAN_MOTION_DDOT></tleParameters></data></segment></body></omm>
<omm id="CCSDS_OMM_VERS" version="2.0">
<header><CREATION_DATE/><ORIGINATOR/></header><body><segment><metadata><OBJECT_NAME>THYBOLT-1</OBJECT_NAME><OBJECT_ID>2022-158C</OBJECT_ID><CENTER_NAME>EARTH</CENTER_NAME><REF_FRAME>TEME</REF_FRAME><TIME_SYSTEM>UTC</TIME_SYSTEM><MEAN_ELEMENT_THEORY>SGP4</MEAN_ELEMENT_THEORY></metadata><data><meanElements><EPOCH>2022-12-14T05:38:45.671712</EPOCH><MEAN_MOTION>15.19476358</MEAN_MOTION><ECCENTRICITY>.0011672</ECCENTRICITY><INCLINATION>97.4496</INCLINATION><RA_OF_ASC_NODE>83.2015</RA_OF_ASC_NODE><ARG_OF_PERICENTER>192.5652</ARG_OF_PERICENTER><MEAN_ANOMALY>224.1585</MEAN_ANOMALY></meanElements><tleParameters><EPHEMERIS_TYPE>0</EPHEMERIS_TYPE><CLASSIFICATION_TYPE>U</CLASSIFICATION_TYPE><NORAD_CAT_ID>54363</NORAD_CAT_ID><ELEMENT_SET_NO>999</ELEMENT_SET_NO><REV_AT_EPOCH>271</REV_AT_EPOCH><BSTAR>.66774E-3</BSTAR><MEAN_MOTION_DOT>.14138E-3</MEAN_MOTION_DOT><MEAN_MOTION_DDOT>0</MEAN_MOTION_DDOT></tleParameters></data></segment></body></omm>
<omm id="CCSDS_OMM_VERS" version="2.0">
<header><CREATION_DATE/><ORIGINATOR/></header><body><segment><metadata><OBJECT_NAME>THYBOLT-2</OBJECT_NAME><OBJECT_ID>2022-158D</OBJECT_ID><CENTER_NAME>EARTH</CENTER_NAME><REF_FRAME>TEME</REF_FRAME><TIME_SYSTEM>UTC</TIME_SYSTEM><MEAN_ELEMENT_THEORY>SGP4</MEAN_ELEMENT_THEORY></metadata><data><meanElements><EPOCH>2022-12-14T04:01:18.321024</EPOCH><MEAN_MOTION>15.19478045</MEAN_MOTION><ECCENTRICITY>.001139</ECCENTRICITY><INCLINATION>97.4495</INCLINATION><RA_OF_ASC_NODE>83.1358</RA_OF_ASC_NODE><ARG_OF_PERICENTER>192.9694</ARG_OF_PERICENTER><MEAN_ANOMALY>214.2559</MEAN_ANOMALY></meanElements><tleParameters><EPHEMERIS_TYPE>0</EPHEMERIS_TYPE><CLASSIFICATION_TYPE>U</CLASSIFICATION_TYPE><NORAD_CAT_ID>54364</NORAD_CAT_ID><ELEMENT_SET_NO>999</ELEMENT_SET_NO><REV_AT_EPOCH>270</REV_AT_EPOCH><BSTAR>.65811E-3</BSTAR><MEAN_MOTION_DOT>.13932E-3</MEAN_MOTION_DOT><MEAN_MOTION_DDOT>0</MEAN_MOTION_DDOT></tleParameters></data></segment></body></omm>
<omm id="CCSDS_OMM_VERS" version="2.0">
<header><CREATION_DATE/><ORIGINATOR/></header><body><segment><metadata><OBJECT_NAME>INS-2B</OBJECT_NAME><OBJECT_ID>2022-158E</OBJECT_ID><CENTER_NAME>EARTH</CENTER_NAME><REF_FRAME>TEME</REF_FRAME><TIME_SYSTEM>UTC</TIME_SYSTEM><MEAN_ELEMENT_THEORY>SGP4</MEAN_ELEMENT_THEORY></metadata><data><meanElements><EPOCH>2022-12-14T05:26:03.043968</EPOCH><MEAN_MOTION>15.19709635</MEAN_MOTION><ECCENTRICITY>.0011415</ECCENTRICITY><INCLINATION>97.4445</INCLINATION><RA_OF_ASC_NODE>83.1801</RA_OF_ASC_NODE><ARG_OF_PERICENTER>203.3631</ARG_OF_PERICENTER><MEAN_ANOMALY>180.8254</MEAN_ANOMALY></meanElements><tleParameters><EPHEMERIS_TYPE>0</EPHEMERIS_TYPE><CLASSIFICATION_TYPE>U</CLASSIFICATION_TYPE><NORAD_CAT_ID>54365</NORAD_CAT_ID><ELEMENT_SET_NO>999</ELEMENT_SET_NO><REV_AT_EPOCH>271</REV_AT_EPOCH><BSTAR>.63128E-3</BSTAR><MEAN_MOTION_DOT>.13451E-3</MEAN_MOTION_DOT><MEAN_MOTION_DDOT>0</MEAN_MOTION_DDOT></tleParameters></data></segment></body></omm>
<omm id="CCSDS_OMM_VERS" version="2.0">
<header><CREATION_DATE/><ORIGINATOR/></header><body><segment><metadata><OBJECT_NAME>ANAND</OBJECT_NAME><OBJECT_ID>2022-158F</OBJECT_ID><CENTER_NAME>EARTH</CENTER_NAME><REF_FRAME>TEME</REF_FRAME><TIME_SYSTEM>UTC</TIME_SYSTEM><MEAN_ELEMENT_THEORY>SGP4</MEAN_ELEMENT_THEORY></metadata><data><meanElements><EPOCH>2022-12-14T05:24:24.869376</EPOCH><MEAN_MOTION>15.19867731</MEAN_MOTION><ECCENTRICITY>.0010323</ECCENTRICITY><INCLINATION>97.4428</INCLINATION><RA_OF_ASC_NODE>83.1766</RA_OF_ASC_NODE><ARG_OF_PERICENTER>202.9543</ARG_OF_PERICENTER><MEAN_ANOMALY>187.5146</MEAN_ANOMALY></meanElements><tleParameters><EPHEMERIS_TYPE>0</EPHEMERIS_TYPE><CLASSIFICATION_TYPE>U</CLASSIFICATION_TYPE><NORAD_CAT_ID>54366</NORAD_CAT_ID><ELEMENT_SET_NO>999</ELEMENT_SET_NO><REV_AT_EPOCH>271</REV_AT_EPOCH><BSTAR>.53168E-3</BSTAR><MEAN_MOTION_DOT>.11363E-3</MEAN_MOTION_DOT><MEAN_MOTION_DDOT>0</MEAN_MOTION_DDOT></tleParameters></data></segment></body></omm>
<omm id="CCSDS_OMM_VERS" version="2.0">
<header><CREATION_DATE/><ORIGINATOR/></header><body><segment><metadata><OBJECT_NAME>ASTROCAST-0304</OBJECT_NAME><OBJECT_ID>2022-158G</OBJECT_ID><CENTER_NAME>EARTH</CENTER_NAME><REF_FRAME>TEME</REF_FRAME><TIME_SYSTEM>UTC</TIME_SYSTEM><MEAN_ELEMENT_THEORY>SGP4</MEAN_ELEMENT_THEORY></metadata><data><meanElements><EPOCH>2022-12-14T05:17:47.324832</EPOCH><MEAN_MOTION>15.20165175</MEAN_MOTION><ECCENTRICITY>.000811</ECCENTRICITY><INCLINATION>97.4468</INCLINATION><RA_OF_ASC_NODE>83.2022</RA_OF_ASC_NODE><ARG_OF_PERICENTER>200.6621</ARG_OF_PERICENTER><MEAN_ANOMALY>189.8540</MEAN_ANOMALY></meanElements><tleParameters><EPHEMERIS_TYPE>0</EPHEMERIS_TYPE><CLASSIFICATION_TYPE>U</CLASSIFICATION_TYPE><NORAD_CAT_ID>54367</NORAD_CAT_ID><ELEMENT_SET_NO>999</ELEMENT_SET_NO><REV_AT_EPOCH>270</REV_AT_EPOCH><BSTAR>.21611E-3</BSTAR><MEAN_MOTION_DOT>.4612E-4</MEAN_MOTION_DOT><MEAN_MOTION_DDOT>0</MEAN_MOTION_DDOT></tleParameters></data></segment></body></omm>
<omm id="CCSDS_OMM_VERS" version="2.0">
<header><CREATION_DATE/><ORIGINATOR/></header><body><segment><metadata><OBJECT_NAME>ASTROCAST-0303</OBJECT_NAME><OBJECT_ID>2022-158H</OBJECT_ID><CENTER_NAME>EARTH</CENTER_NAME><REF_FRAME>TEME</REF_FRAME><TIME_SYSTEM>UTC</TIME_SYSTEM><MEAN_ELEMENT_THEORY>SGP4</MEAN_ELEMENT_THEORY></metadata><data><meanElements><EPOCH>2022-12-14T05:16:17.518080</EPOCH><MEAN_MOTION>15.20262427</MEAN_MOTION><ECCENTRICITY>.0008277</ECCENTRICITY><INCLINATION>97.4491</INCLINATION><RA_OF_ASC_NODE>83.2105</RA_OF_ASC_NODE><ARG_OF_PERICENTER>208.9442</ARG_OF_PERICENTER><MEAN_ANOMALY>181.5244</MEAN_ANOMALY></meanElements><tleParameters><EPHEMERIS_TYPE>0</EPHEMERIS_TYPE><CLASSIFICATION_TYPE>U</CLASSIFICATION_TYPE><NORAD_CAT_ID>54368</NORAD_CAT_ID><ELEMENT_SET_NO>999</ELEMENT_SET_NO><REV_AT_EPOCH>271</REV_AT_EPOCH><BSTAR>.26329E-3</BSTAR><MEAN_MOTION_DOT>.565E-4</MEAN_MOTION_DOT><MEAN_MOTION_DDOT>0</MEAN_MOTION_DDOT></tleParameters></data></segment></body></omm>

</ndm>